{
"type": "FeatureCollection",
"name": "arboles",
"crs": { "type": "name", "properties": { "name": "urn:ogc:def:crs:OGC:1.3:CRS84" } },
"features": [
{ "type": "Feature", "properties": { "AMBIENTE": "Bosque", "LATITUD": 5.14486111, "LONGITUD": -72.05263889, "DAP_cm": 79.577285459638404, "ALTURA_m": 8.2, "COPA_D1_m": 14.9, "COPA_D2_m": 15.6, "PROM_COPA_m": 15.25, "AREA_COPA_m2": 182.6545875, "ETIQUETA": "VC-IMP-31", "ACEITE_TOTAL_ml": 0.0, "RESINA_TOTAL_ml": 0.0, "Dist_Borde_m": 11.626131813627977, "REF_CLIMA": "Bosque", "RADIO_COPA_m": 7.625, "NDVI_HIST_MEDIA": 0.641, "NDVI_HIST_MEDIANA": 0.635, "NDVI_HIST_MIN": 0.495, "NDVI_HIST_MAX": 0.792, "NDVI_HIST_SD": 0.116 }, "geometry": { "type": "Point", "coordinates": [ -72.05263888957613, 5.144861109908511 ] } },
{ "type": "Feature", "properties": { "AMBIENTE": "Bosque", "LATITUD": 5.14430556, "LONGITUD": -72.05241667, "DAP_cm": 109.816653934301, "ALTURA_m": 15.2, "COPA_D1_m": 20.5, "COPA_D2_m": 20.5, "PROM_COPA_m": 20.5, "AREA_COPA_m2": 330.06435, "ETIQUETA": "VC-IMP-32", "ACEITE_TOTAL_ml": 0.0, "RESINA_TOTAL_ml": 0.0, "Dist_Borde_m": 6.3113799514322304, "REF_CLIMA": "Bosque", "RADIO_COPA_m": 10.25, "NDVI_HIST_MEDIA": 0.65, "NDVI_HIST_MEDIANA": 0.663, "NDVI_HIST_MIN": 0.498, "NDVI_HIST_MAX": 0.804, "NDVI_HIST_SD": 0.109 }, "geometry": { "type": "Point", "coordinates": [ -72.052416670441218, 5.144305560387656 ] } },
{ "type": "Feature", "properties": { "AMBIENTE": "Bosque", "LATITUD": 5.14419444, "LONGITUD": -72.05213889, "DAP_cm": 45.0, "ALTURA_m": 13.2, "COPA_D1_m": 16.4, "COPA_D2_m": 15.0, "PROM_COPA_m": 15.7, "AREA_COPA_m2": 193.593246, "ETIQUETA": "VC-IMP-33", "ACEITE_TOTAL_ml": 0.0, "RESINA_TOTAL_ml": 380.0, "Dist_Borde_m": 1.9990430842187856, "REF_CLIMA": "Bosque", "RADIO_COPA_m": 7.85, "NDVI_HIST_MEDIA": 0.547, "NDVI_HIST_MEDIANA": 0.563, "NDVI_HIST_MIN": 0.336, "NDVI_HIST_MAX": 0.725, "NDVI_HIST_SD": 0.132 }, "geometry": { "type": "Point", "coordinates": [ -72.052138890000364, 5.144194440272917 ] } },
{ "type": "Feature", "properties": { "AMBIENTE": "Bosque", "LATITUD": 5.14444444, "LONGITUD": -72.05199444, "DAP_cm": 61.433664374840845, "ALTURA_m": 11.5, "COPA_D1_m": 18.5, "COPA_D2_m": 12.2, "PROM_COPA_m": 15.35, "AREA_COPA_m2": 185.0579115, "ETIQUETA": "VC-IMP-34", "ACEITE_TOTAL_ml": 0.0, "RESINA_TOTAL_ml": 180.0, "Dist_Borde_m": 24.473114652967087, "REF_CLIMA": "Bosque", "RADIO_COPA_m": 7.675, "NDVI_HIST_MEDIA": 0.52, "NDVI_HIST_MEDIANA": 0.518, "NDVI_HIST_MIN": 0.311, "NDVI_HIST_MAX": 0.746, "NDVI_HIST_SD": 0.142 }, "geometry": { "type": "Point", "coordinates": [ -72.051994440270121, 5.144444440502204 ] } },
{ "type": "Feature", "properties": { "AMBIENTE": "Bosque", "LATITUD": 5.14402778, "LONGITUD": -72.05116667, "DAP_cm": 75.43926661573721, "ALTURA_m": 11.3, "COPA_D1_m": 20.3, "COPA_D2_m": 22.8, "PROM_COPA_m": 21.55, "AREA_COPA_m2": 364.7417235, "ETIQUETA": "VC-IMP-35", "ACEITE_TOTAL_ml": 0.0, "RESINA_TOTAL_ml": 25.0, "Dist_Borde_m": 18.634662102775874, "REF_CLIMA": "Bosque", "RADIO_COPA_m": 10.775, "NDVI_HIST_MEDIA": 0.688, "NDVI_HIST_MEDIANA": 0.682, "NDVI_HIST_MIN": 0.503, "NDVI_HIST_MAX": 0.812, "NDVI_HIST_SD": 0.112 }, "geometry": { "type": "Point", "coordinates": [ -72.051166670446918, 5.144027780013039 ] } },
{ "type": "Feature", "properties": { "AMBIENTE": "Bosque", "LATITUD": 5.144, "LONGITUD": -72.05102778, "DAP_cm": 75.43926661573721, "ALTURA_m": 10.0, "COPA_D1_m": 20.3, "COPA_D2_m": 22.8, "PROM_COPA_m": 21.55, "AREA_COPA_m2": 364.7417235, "ETIQUETA": "VC-IMP-36", "ACEITE_TOTAL_ml": 0.0, "RESINA_TOTAL_ml": 10.0, "Dist_Borde_m": 11.142501694109376, "REF_CLIMA": "Bosque", "RADIO_COPA_m": 10.775, "NDVI_HIST_MEDIA": 0.683, "NDVI_HIST_MEDIANA": 0.672, "NDVI_HIST_MIN": 0.505, "NDVI_HIST_MAX": 0.807, "NDVI_HIST_SD": 0.113 }, "geometry": { "type": "Point", "coordinates": [ -72.051027779890745, 5.144000000080346 ] } },
{ "type": "Feature", "properties": { "AMBIENTE": "Bosque", "LATITUD": 5.14391667, "LONGITUD": -72.05091667000001, "DAP_cm": 48.38298955946015, "ALTURA_m": 9.4, "COPA_D1_m": 19.5, "COPA_D2_m": 17.5, "PROM_COPA_m": 18.5, "AREA_COPA_m2": 268.80315, "ETIQUETA": "VC-IMP-37", "ACEITE_TOTAL_ml": 0.0, "RESINA_TOTAL_ml": 0.0, "Dist_Borde_m": 12.346017799957737, "REF_CLIMA": "Bosque", "RADIO_COPA_m": 9.25, "NDVI_HIST_MEDIA": 0.685, "NDVI_HIST_MEDIANA": 0.678, "NDVI_HIST_MIN": 0.508, "NDVI_HIST_MAX": 0.815, "NDVI_HIST_SD": 0.118 }, "geometry": { "type": "Point", "coordinates": [ -72.050916670074969, 5.1439166700181 ] } },
{ "type": "Feature", "properties": { "AMBIENTE": "Bosque", "LATITUD": 5.14388889, "LONGITUD": -72.05077778, "DAP_cm": 80.850522026992621, "ALTURA_m": 12.5, "COPA_D1_m": 27.6, "COPA_D2_m": 27.5, "PROM_COPA_m": 27.55, "AREA_COPA_m2": 596.1205635, "ETIQUETA": "VC-IMP-38", "ACEITE_TOTAL_ml": 0.0, "RESINA_TOTAL_ml": 95.0, "Dist_Borde_m": 8.8901677381720319, "REF_CLIMA": "Bosque", "RADIO_COPA_m": 13.775, "NDVI_HIST_MEDIA": 0.683, "NDVI_HIST_MEDIANA": 0.677, "NDVI_HIST_MIN": 0.521, "NDVI_HIST_MAX": 0.807, "NDVI_HIST_SD": 0.111 }, "geometry": { "type": "Point", "coordinates": [ -72.05077777956285, 5.143888890037277 ] } },
{ "type": "Feature", "properties": { "AMBIENTE": "Bosque", "LATITUD": 5.14388889, "LONGITUD": -72.05069444, "DAP_cm": 45.518207282913167, "ALTURA_m": 11.3, "COPA_D1_m": 16.8, "COPA_D2_m": 16.8, "PROM_COPA_m": 16.8, "AREA_COPA_m2": 221.671296, "ETIQUETA": "VC-IMP-39", "ACEITE_TOTAL_ml": 0.0, "RESINA_TOTAL_ml": 0.0, "Dist_Borde_m": 5.345726619575049, "REF_CLIMA": "Bosque", "RADIO_COPA_m": 8.4, "NDVI_HIST_MEDIA": 0.674, "NDVI_HIST_MEDIANA": 0.674, "NDVI_HIST_MIN": 0.517, "NDVI_HIST_MAX": 0.797, "NDVI_HIST_SD": 0.108 }, "geometry": { "type": "Point", "coordinates": [ -72.05069443970028, 5.143888889876096 ] } },
{ "type": "Feature", "properties": { "AMBIENTE": "Bosque", "LATITUD": 5.14233333, "LONGITUD": -72.05094444, "DAP_cm": 42.016806722689076, "ALTURA_m": 11.3, "COPA_D1_m": 13.6, "COPA_D2_m": 13.6, "PROM_COPA_m": 13.6, "AREA_COPA_m2": 145.267584, "ETIQUETA": "VC-IMP-40", "ACEITE_TOTAL_ml": 0.0, "RESINA_TOTAL_ml": 100.0, "Dist_Borde_m": 9.6485614765079291, "REF_CLIMA": "Bosque", "RADIO_COPA_m": 6.8, "NDVI_HIST_MEDIA": 0.713, "NDVI_HIST_MEDIANA": 0.71, "NDVI_HIST_MIN": 0.52, "NDVI_HIST_MAX": 0.827, "NDVI_HIST_SD": 0.107 }, "geometry": { "type": "Point", "coordinates": [ -72.050944440161189, 5.142333329807732 ] } },
{ "type": "Feature", "properties": { "AMBIENTE": "Bosque", "LATITUD": 5.14188889, "LONGITUD": -72.05108333, "DAP_cm": 42.33511586452763, "ALTURA_m": 12.4, "COPA_D1_m": 17.4, "COPA_D2_m": 11.5, "PROM_COPA_m": 14.45, "AREA_COPA_m2": 163.9934835, "ETIQUETA": "VC-IMP-41", "ACEITE_TOTAL_ml": 0.0, "RESINA_TOTAL_ml": 10.0, "Dist_Borde_m": 32.246565506071313, "REF_CLIMA": "Bosque", "RADIO_COPA_m": 7.225, "NDVI_HIST_MEDIA": 0.68, "NDVI_HIST_MEDIANA": 0.677, "NDVI_HIST_MIN": 0.467, "NDVI_HIST_MAX": 0.82, "NDVI_HIST_SD": 0.119 }, "geometry": { "type": "Point", "coordinates": [ -72.051083330082108, 5.14188888978457 ] } },
{ "type": "Feature", "properties": { "AMBIENTE": "Bosque", "LATITUD": 5.14186111, "LONGITUD": -72.05055556000001, "DAP_cm": 50.611153552330023, "ALTURA_m": 14.1, "COPA_D1_m": 20.4, "COPA_D2_m": 20.4, "PROM_COPA_m": 20.4, "AREA_COPA_m2": 326.852064, "ETIQUETA": "VC-IMP-42", "ACEITE_TOTAL_ml": 0.0, "RESINA_TOTAL_ml": 15.0, "Dist_Borde_m": 19.831040890584902, "REF_CLIMA": "Bosque", "RADIO_COPA_m": 10.2, "NDVI_HIST_MEDIA": 0.696, "NDVI_HIST_MEDIANA": 0.693, "NDVI_HIST_MIN": 0.5, "NDVI_HIST_MAX": 0.828, "NDVI_HIST_SD": 0.113 }, "geometry": { "type": "Point", "coordinates": [ -72.050555560356713, 5.141861110063001 ] } },
{ "type": "Feature", "properties": { "AMBIENTE": "Bosque", "LATITUD": 5.14166667, "LONGITUD": -72.05027778, "DAP_cm": 46.791443850267378, "ALTURA_m": 12.0, "COPA_D1_m": 14.7, "COPA_D2_m": 14.7, "PROM_COPA_m": 14.7, "AREA_COPA_m2": 169.717086, "ETIQUETA": "VC-IMP-43", "ACEITE_TOTAL_ml": 0.0, "RESINA_TOTAL_ml": 100.0, "Dist_Borde_m": 13.112170707265816, "REF_CLIMA": "Bosque", "RADIO_COPA_m": 7.35, "NDVI_HIST_MEDIA": 0.693, "NDVI_HIST_MEDIANA": 0.696, "NDVI_HIST_MIN": 0.506, "NDVI_HIST_MAX": 0.824, "NDVI_HIST_SD": 0.115 }, "geometry": { "type": "Point", "coordinates": [ -72.050277780280084, 5.141666670049489 ] } },
{ "type": "Feature", "properties": { "AMBIENTE": "Bosque", "LATITUD": 5.14158333, "LONGITUD": -72.05008333000001, "DAP_cm": 45.995670995670999, "ALTURA_m": 11.8, "COPA_D1_m": 15.3, "COPA_D2_m": 15.3, "PROM_COPA_m": 15.3, "AREA_COPA_m2": 183.854286, "ETIQUETA": "VC-IMP-44", "ACEITE_TOTAL_ml": 0.0, "RESINA_TOTAL_ml": 130.0, "Dist_Borde_m": 8.7633191957688563, "REF_CLIMA": "Bosque", "RADIO_COPA_m": 7.65, "NDVI_HIST_MEDIA": 0.686, "NDVI_HIST_MEDIANA": 0.691, "NDVI_HIST_MIN": 0.51, "NDVI_HIST_MAX": 0.821, "NDVI_HIST_SD": 0.126 }, "geometry": { "type": "Point", "coordinates": [ -72.050083329596447, 5.141583329801283 ] } },
{ "type": "Feature", "properties": { "AMBIENTE": "Bosque", "LATITUD": 5.14158333, "LONGITUD": -72.05008333000001, "DAP_cm": 59.205500381970971, "ALTURA_m": 9.0, "COPA_D1_m": 10.7, "COPA_D2_m": 10.7, "PROM_COPA_m": 10.7, "AREA_COPA_m2": 89.920446, "ETIQUETA": "VC-IMP-45", "ACEITE_TOTAL_ml": 0.0, "RESINA_TOTAL_ml": 0.0, "Dist_Borde_m": 8.7633191957688563, "REF_CLIMA": "Bosque", "RADIO_COPA_m": 5.35, "NDVI_HIST_MEDIA": 0.688, "NDVI_HIST_MEDIANA": 0.695, "NDVI_HIST_MIN": 0.512, "NDVI_HIST_MAX": 0.822, "NDVI_HIST_SD": 0.126 }, "geometry": { "type": "Point", "coordinates": [ -72.050083329596447, 5.141583329801283 ] } },
{ "type": "Feature", "properties": { "AMBIENTE": "Bosque", "LATITUD": 5.14133333, "LONGITUD": -72.05005556, "DAP_cm": 61.592818945760122, "ALTURA_m": 15.0, "COPA_D1_m": 16.0, "COPA_D2_m": 16.0, "PROM_COPA_m": 16.0, "AREA_COPA_m2": 201.0624, "ETIQUETA": "VC-IMB-1", "ACEITE_TOTAL_ml": 0.0, "RESINA_TOTAL_ml": 115.0, "Dist_Borde_m": 27.413442212092278, "REF_CLIMA": "Bosque", "RADIO_COPA_m": 8.0, "NDVI_HIST_MEDIA": 0.69, "NDVI_HIST_MEDIANA": 0.691, "NDVI_HIST_MIN": 0.489, "NDVI_HIST_MAX": 0.822, "NDVI_HIST_SD": 0.105 }, "geometry": { "type": "Point", "coordinates": [ -72.050055560447134, 5.14133333044365 ] } },
{ "type": "Feature", "properties": { "AMBIENTE": "Bosque", "LATITUD": 5.14119444, "LONGITUD": -72.05008333000001, "DAP_cm": 54.430863254392669, "ALTURA_m": 13.1, "COPA_D1_m": 18.2, "COPA_D2_m": 18.2, "PROM_COPA_m": 18.2, "AREA_COPA_m2": 260.155896, "ETIQUETA": "VC-IMB-2", "ACEITE_TOTAL_ml": 0.0, "RESINA_TOTAL_ml": 30.0, "Dist_Borde_m": 38.845110611282799, "REF_CLIMA": "Bosque", "RADIO_COPA_m": 9.1, "NDVI_HIST_MEDIA": 0.69, "NDVI_HIST_MEDIANA": 0.694, "NDVI_HIST_MIN": 0.476, "NDVI_HIST_MAX": 0.826, "NDVI_HIST_SD": 0.112 }, "geometry": { "type": "Point", "coordinates": [ -72.050083330106602, 5.14119444020739 ] } },
{ "type": "Feature", "properties": { "AMBIENTE": "Bosque", "LATITUD": 5.14094444, "LONGITUD": -72.04977778, "DAP_cm": 43.767507002801118, "ALTURA_m": 10.4, "COPA_D1_m": 14.2, "COPA_D2_m": 14.2, "PROM_COPA_m": 14.2, "AREA_COPA_m2": 158.368056, "ETIQUETA": "VC-IMB-3", "ACEITE_TOTAL_ml": 100.0, "RESINA_TOTAL_ml": 40.0, "Dist_Borde_m": 53.157337406536804, "REF_CLIMA": "Bosque", "RADIO_COPA_m": 7.1, "NDVI_HIST_MEDIA": 0.686, "NDVI_HIST_MEDIANA": 0.679, "NDVI_HIST_MIN": 0.498, "NDVI_HIST_MAX": 0.808, "NDVI_HIST_SD": 0.108 }, "geometry": { "type": "Point", "coordinates": [ -72.04977778019483, 5.140944440519441 ] } },
{ "type": "Feature", "properties": { "AMBIENTE": "Bosque", "LATITUD": 5.14094444, "LONGITUD": -72.04975, "DAP_cm": 35.650623885918002, "ALTURA_m": 8.5, "COPA_D1_m": 13.7, "COPA_D2_m": 13.7, "PROM_COPA_m": 13.7, "AREA_COPA_m2": 147.411726, "ETIQUETA": "VC-IMB-4", "ACEITE_TOTAL_ml": 0.0, "RESINA_TOTAL_ml": 230.0, "Dist_Borde_m": 53.389778212158568, "REF_CLIMA": "Bosque", "RADIO_COPA_m": 6.85, "NDVI_HIST_MEDIA": 0.683, "NDVI_HIST_MEDIANA": 0.673, "NDVI_HIST_MIN": 0.498, "NDVI_HIST_MAX": 0.808, "NDVI_HIST_SD": 0.109 }, "geometry": { "type": "Point", "coordinates": [ -72.049749999775315, 5.140944439842814 ] } },
{ "type": "Feature", "properties": { "AMBIENTE": "Bosque", "LATITUD": 5.14091667, "LONGITUD": -72.04972222000001, "DAP_cm": 35.650623885918002, "ALTURA_m": 14.6, "COPA_D1_m": 27.7, "COPA_D2_m": 27.7, "PROM_COPA_m": 27.7, "AREA_COPA_m2": 602.629566, "ETIQUETA": "VC-IMB-5", "ACEITE_TOTAL_ml": 0.0, "RESINA_TOTAL_ml": 600.0, "Dist_Borde_m": 56.682161346385989, "REF_CLIMA": "Bosque", "RADIO_COPA_m": 13.85, "NDVI_HIST_MEDIA": 0.688, "NDVI_HIST_MEDIANA": 0.682, "NDVI_HIST_MIN": 0.506, "NDVI_HIST_MAX": 0.814, "NDVI_HIST_SD": 0.109 }, "geometry": { "type": "Point", "coordinates": [ -72.049722219906471, 5.14091667058297 ] } },
{ "type": "Feature", "properties": { "AMBIENTE": "Bosque", "LATITUD": 5.14097222, "LONGITUD": -72.04972222000001, "DAP_cm": 61.433664374840845, "ALTURA_m": 13.6, "COPA_D1_m": 19.2, "COPA_D2_m": 19.2, "PROM_COPA_m": 19.2, "AREA_COPA_m2": 289.529856, "ETIQUETA": "VC-IMB-6", "ACEITE_TOTAL_ml": 0.0, "RESINA_TOTAL_ml": 255.0, "Dist_Borde_m": 50.560873146932899, "REF_CLIMA": "Bosque", "RADIO_COPA_m": 9.6, "NDVI_HIST_MEDIA": 0.683, "NDVI_HIST_MEDIANA": 0.673, "NDVI_HIST_MIN": 0.5, "NDVI_HIST_MAX": 0.81, "NDVI_HIST_SD": 0.11 }, "geometry": { "type": "Point", "coordinates": [ -72.049722219689087, 5.140972220416836 ] } },
{ "type": "Feature", "properties": { "AMBIENTE": "Bosque", "LATITUD": 5.14105556, "LONGITUD": -72.04966667, "DAP_cm": 58.887191240132417, "ALTURA_m": 15.2, "COPA_D1_m": 26.8, "COPA_D2_m": 26.8, "PROM_COPA_m": 26.8, "AREA_COPA_m2": 564.105696, "ETIQUETA": "VC-IMB-7", "ACEITE_TOTAL_ml": 0.0, "RESINA_TOTAL_ml": 10.0, "Dist_Borde_m": 41.839519536225161, "REF_CLIMA": "Bosque", "RADIO_COPA_m": 13.4, "NDVI_HIST_MEDIA": 0.688, "NDVI_HIST_MEDIANA": 0.676, "NDVI_HIST_MIN": 0.513, "NDVI_HIST_MAX": 0.817, "NDVI_HIST_SD": 0.109 }, "geometry": { "type": "Point", "coordinates": [ -72.049666669771099, 5.14105556011129 ] } },
{ "type": "Feature", "properties": { "AMBIENTE": "Bosque", "LATITUD": 5.14113889, "LONGITUD": -72.04966667, "DAP_cm": 38.515406162464984, "ALTURA_m": 10.2, "COPA_D1_m": 15.8, "COPA_D2_m": 15.8, "PROM_COPA_m": 15.8, "AREA_COPA_m2": 196.067256, "ETIQUETA": "VC-IMB-8", "ACEITE_TOTAL_ml": 0.0, "RESINA_TOTAL_ml": 680.0, "Dist_Borde_m": 32.659397218525527, "REF_CLIMA": "Bosque", "RADIO_COPA_m": 7.9, "NDVI_HIST_MEDIA": 0.691, "NDVI_HIST_MEDIANA": 0.679, "NDVI_HIST_MIN": 0.515, "NDVI_HIST_MAX": 0.821, "NDVI_HIST_SD": 0.11 }, "geometry": { "type": "Point", "coordinates": [ -72.049666669877325, 5.141138890290382 ] } },
{ "type": "Feature", "properties": { "AMBIENTE": "Bosque", "LATITUD": 5.14102778, "LONGITUD": -72.04933333, "DAP_cm": 51.566080977845687, "ALTURA_m": 11.5, "COPA_D1_m": 18.0, "COPA_D2_m": 18.0, "PROM_COPA_m": 18.0, "AREA_COPA_m2": 254.4696, "ETIQUETA": "VC-IMB-9", "ACEITE_TOTAL_ml": 0.0, "RESINA_TOTAL_ml": 30.0, "Dist_Borde_m": 50.506635955519499, "REF_CLIMA": "Bosque", "RADIO_COPA_m": 9.0, "NDVI_HIST_MEDIA": 0.694, "NDVI_HIST_MEDIANA": 0.684, "NDVI_HIST_MIN": 0.507, "NDVI_HIST_MAX": 0.832, "NDVI_HIST_SD": 0.113 }, "geometry": { "type": "Point", "coordinates": [ -72.049333329644739, 5.141027780585954 ] } },
{ "type": "Feature", "properties": { "AMBIENTE": "Bosque", "LATITUD": 5.14097222, "LONGITUD": -72.04933333, "DAP_cm": 47.428062133944486, "ALTURA_m": 13.5, "COPA_D1_m": 15.2, "COPA_D2_m": 15.2, "PROM_COPA_m": 15.2, "AREA_COPA_m2": 181.458816, "ETIQUETA": "VC-IMB-10", "ACEITE_TOTAL_ml": 730.0, "RESINA_TOTAL_ml": 0.0, "Dist_Borde_m": 56.646101661356894, "REF_CLIMA": "Bosque", "RADIO_COPA_m": 7.6, "NDVI_HIST_MEDIA": 0.702, "NDVI_HIST_MEDIANA": 0.693, "NDVI_HIST_MIN": 0.509, "NDVI_HIST_MAX": 0.839, "NDVI_HIST_SD": 0.111 }, "geometry": { "type": "Point", "coordinates": [ -72.049333329912841, 5.14097221989969 ] } },
{ "type": "Feature", "properties": { "AMBIENTE": "Bosque", "LATITUD": 5.14116667, "LONGITUD": -72.04913889, "DAP_cm": 62.388591800356508, "ALTURA_m": 15.6, "COPA_D1_m": 20.4, "COPA_D2_m": 20.4, "PROM_COPA_m": 20.4, "AREA_COPA_m2": 326.852064, "ETIQUETA": "VC-IMB-11", "ACEITE_TOTAL_ml": 0.0, "RESINA_TOTAL_ml": 0.0, "Dist_Borde_m": 35.33225927096094, "REF_CLIMA": "Bosque", "RADIO_COPA_m": 10.2, "NDVI_HIST_MEDIA": 0.699, "NDVI_HIST_MEDIANA": 0.679, "NDVI_HIST_MIN": 0.524, "NDVI_HIST_MAX": 0.842, "NDVI_HIST_SD": 0.115 }, "geometry": { "type": "Point", "coordinates": [ -72.049138889923725, 5.14116667018783 ] } },
{ "type": "Feature", "properties": { "AMBIENTE": "Bosque", "LATITUD": 5.14136111, "LONGITUD": -72.04888889, "DAP_cm": 48.064680417621595, "ALTURA_m": 14.3, "COPA_D1_m": 16.1, "COPA_D2_m": 16.1, "PROM_COPA_m": 16.1, "AREA_COPA_m2": 203.583534, "ETIQUETA": "VC-IMB-12", "ACEITE_TOTAL_ml": 255.0, "RESINA_TOTAL_ml": 0.0, "Dist_Borde_m": 24.011508100970534, "REF_CLIMA": "Bosque", "RADIO_COPA_m": 8.05, "NDVI_HIST_MEDIA": 0.695, "NDVI_HIST_MEDIANA": 0.685, "NDVI_HIST_MIN": 0.489, "NDVI_HIST_MAX": 0.837, "NDVI_HIST_SD": 0.118 }, "geometry": { "type": "Point", "coordinates": [ -72.048888889871094, 5.141361109912242 ] } },
{ "type": "Feature", "properties": { "AMBIENTE": "Bosque", "LATITUD": 5.14152778, "LONGITUD": -72.04869444000001, "DAP_cm": 81.805449452508284, "ALTURA_m": 15.4, "COPA_D1_m": 21.4, "COPA_D2_m": 21.4, "PROM_COPA_m": 21.4, "AREA_COPA_m2": 359.681784, "ETIQUETA": "VC-IMB-13", "ACEITE_TOTAL_ml": 0.0, "RESINA_TOTAL_ml": 320.0, "Dist_Borde_m": 15.637018015821479, "REF_CLIMA": "Bosque", "RADIO_COPA_m": 10.7, "NDVI_HIST_MEDIA": 0.665, "NDVI_HIST_MEDIANA": 0.665, "NDVI_HIST_MIN": 0.443, "NDVI_HIST_MAX": 0.806, "NDVI_HIST_SD": 0.129 }, "geometry": { "type": "Point", "coordinates": [ -72.048694440320688, 5.141527780568857 ] } },
{ "type": "Feature", "properties": { "AMBIENTE": "Bosque", "LATITUD": 5.14163889, "LONGITUD": -72.04838889, "DAP_cm": 45.995670995670999, "ALTURA_m": 16.8, "COPA_D1_m": 22.1, "COPA_D2_m": 22.1, "PROM_COPA_m": 22.1, "AREA_COPA_m2": 383.597214, "ETIQUETA": "VC-IMB-14", "ACEITE_TOTAL_ml": 135.0, "RESINA_TOTAL_ml": 0.0, "Dist_Borde_m": 9.5222862406719297, "REF_CLIMA": "Bosque", "RADIO_COPA_m": 11.05, "NDVI_HIST_MEDIA": 0.608, "NDVI_HIST_MEDIANA": 0.615, "NDVI_HIST_MIN": 0.357, "NDVI_HIST_MAX": 0.768, "NDVI_HIST_SD": 0.135 }, "geometry": { "type": "Point", "coordinates": [ -72.048388890020888, 5.141638890261667 ] } },
{ "type": "Feature", "properties": { "AMBIENTE": "Bosque", "LATITUD": 5.14091667, "LONGITUD": -72.04897222, "DAP_cm": 41.698497580850521, "ALTURA_m": 16.0, "COPA_D1_m": 19.3, "COPA_D2_m": 19.3, "PROM_COPA_m": 19.3, "AREA_COPA_m2": 292.553646, "ETIQUETA": "VC-IMB-15", "ACEITE_TOTAL_ml": 20.0, "RESINA_TOTAL_ml": 0.0, "Dist_Borde_m": 67.039817320090691, "REF_CLIMA": "Bosque", "RADIO_COPA_m": 9.65, "NDVI_HIST_MEDIA": 0.698, "NDVI_HIST_MEDIANA": 0.689, "NDVI_HIST_MIN": 0.502, "NDVI_HIST_MAX": 0.818, "NDVI_HIST_SD": 0.107 }, "geometry": { "type": "Point", "coordinates": [ -72.048972219974445, 5.140916670034143 ] } },
{ "type": "Feature", "properties": { "AMBIENTE": "Potrero", "LATITUD": 5.14047222, "LONGITUD": -72.04475, "DAP_cm": 37.560478736949328, "ALTURA_m": 12.1, "COPA_D1_m": 13.8, "COPA_D2_m": 13.8, "PROM_COPA_m": 13.8, "AREA_COPA_m2": 149.571576, "ETIQUETA": "VC-IMB-16", "ACEITE_TOTAL_ml": 0.0, "RESINA_TOTAL_ml": 45.0, "Dist_Borde_m": 6.9, "REF_CLIMA": "Arbol", "RADIO_COPA_m": 6.9, "NDVI_HIST_MEDIA": 0.579, "NDVI_HIST_MEDIANA": 0.577, "NDVI_HIST_MIN": 0.368, "NDVI_HIST_MAX": 0.748, "NDVI_HIST_SD": 0.113 }, "geometry": { "type": "Point", "coordinates": [ -72.044750000294613, 5.14047222022988 ] } },
{ "type": "Feature", "properties": { "AMBIENTE": "Potrero", "LATITUD": 5.14252778, "LONGITUD": -72.04380556, "DAP_cm": 70.0280112044818, "ALTURA_m": 16.8, "COPA_D1_m": 18.4, "COPA_D2_m": 18.4, "PROM_COPA_m": 18.4, "AREA_COPA_m2": 265.905024, "ETIQUETA": "VC-IMB-17", "ACEITE_TOTAL_ml": 40.0, "RESINA_TOTAL_ml": 100.0, "Dist_Borde_m": 8.1896238482609451, "REF_CLIMA": "Abierto", "RADIO_COPA_m": 9.2, "NDVI_HIST_MEDIA": 0.59, "NDVI_HIST_MEDIANA": 0.568, "NDVI_HIST_MIN": 0.345, "NDVI_HIST_MAX": 0.769, "NDVI_HIST_SD": 0.13 }, "geometry": { "type": "Point", "coordinates": [ -72.043805559639921, 5.142527780351737 ] } },
{ "type": "Feature", "properties": { "AMBIENTE": "Potrero", "LATITUD": 5.14244444, "LONGITUD": -72.04375, "DAP_cm": 49.497071555895083, "ALTURA_m": 16.2, "COPA_D1_m": 16.0, "COPA_D2_m": 16.0, "PROM_COPA_m": 16.0, "AREA_COPA_m2": 201.0624, "ETIQUETA": "VC-IMB-18", "ACEITE_TOTAL_ml": 820.0, "RESINA_TOTAL_ml": 0.0, "Dist_Borde_m": 6.7962272454098436, "REF_CLIMA": "Abierto", "RADIO_COPA_m": 8.0, "NDVI_HIST_MEDIA": 0.627, "NDVI_HIST_MEDIANA": 0.615, "NDVI_HIST_MIN": 0.446, "NDVI_HIST_MAX": 0.769, "NDVI_HIST_SD": 0.116 }, "geometry": { "type": "Point", "coordinates": [ -72.043750000371276, 5.142444440276007 ] } },
{ "type": "Feature", "properties": { "AMBIENTE": "Potrero", "LATITUD": 5.14283333, "LONGITUD": -72.04425, "DAP_cm": 48.160173160173166, "ALTURA_m": 16.0, "COPA_D1_m": 18.4, "COPA_D2_m": 18.4, "PROM_COPA_m": 18.4, "AREA_COPA_m2": 265.905024, "ETIQUETA": "VC-IMB-19", "ACEITE_TOTAL_ml": 230.0, "RESINA_TOTAL_ml": 10.0, "Dist_Borde_m": 4.0916791113525992, "REF_CLIMA": "Abierto", "RADIO_COPA_m": 9.2, "NDVI_HIST_MEDIA": 0.588, "NDVI_HIST_MEDIANA": 0.602, "NDVI_HIST_MIN": 0.39, "NDVI_HIST_MAX": 0.773, "NDVI_HIST_SD": 0.126 }, "geometry": { "type": "Point", "coordinates": [ -72.044249999867588, 5.14283332976095 ] } },
{ "type": "Feature", "properties": { "AMBIENTE": "Potrero", "LATITUD": 5.14341667, "LONGITUD": -72.04466667, "DAP_cm": 36.28724216959511, "ALTURA_m": 17.8, "COPA_D1_m": 17.0, "COPA_D2_m": 17.0, "PROM_COPA_m": 17.0, "AREA_COPA_m2": 226.9806, "ETIQUETA": "VC-IMB-20", "ACEITE_TOTAL_ml": 385.0, "RESINA_TOTAL_ml": 0.0, "Dist_Borde_m": 5.5566594083419156, "REF_CLIMA": "Abierto", "RADIO_COPA_m": 8.5, "NDVI_HIST_MEDIA": 0.586, "NDVI_HIST_MEDIANA": 0.608, "NDVI_HIST_MIN": 0.408, "NDVI_HIST_MAX": 0.765, "NDVI_HIST_SD": 0.119 }, "geometry": { "type": "Point", "coordinates": [ -72.0446666700837, 5.143416670217947 ] } },
{ "type": "Feature", "properties": { "AMBIENTE": "Potrero", "LATITUD": 5.14377778, "LONGITUD": -72.04461111000001, "DAP_cm": 53.899286987522288, "ALTURA_m": 18.1, "COPA_D1_m": 19.3, "COPA_D2_m": 19.3, "PROM_COPA_m": 19.3, "AREA_COPA_m2": 292.553646, "ETIQUETA": "VC-IMB-21", "ACEITE_TOTAL_ml": 0.0, "RESINA_TOTAL_ml": 235.0, "Dist_Borde_m": 5.4318255334688574, "REF_CLIMA": "Abierto", "RADIO_COPA_m": 9.65, "NDVI_HIST_MEDIA": 0.548, "NDVI_HIST_MEDIANA": 0.567, "NDVI_HIST_MIN": 0.367, "NDVI_HIST_MAX": 0.734, "NDVI_HIST_SD": 0.138 }, "geometry": { "type": "Point", "coordinates": [ -72.044611110353145, 5.143777779748039 ] } },
{ "type": "Feature", "properties": { "AMBIENTE": "Potrero", "LATITUD": 5.146, "LONGITUD": -72.04611111, "DAP_cm": 41.698497580850521, "ALTURA_m": 14.8, "COPA_D1_m": 16.0, "COPA_D2_m": 16.0, "PROM_COPA_m": 16.0, "AREA_COPA_m2": 201.0624, "ETIQUETA": "VC-IMB-22", "ACEITE_TOTAL_ml": 0.0, "RESINA_TOTAL_ml": 115.0, "Dist_Borde_m": 5.446128652846137, "REF_CLIMA": "Bosquete", "RADIO_COPA_m": 8.0, "NDVI_HIST_MEDIA": 0.578, "NDVI_HIST_MEDIANA": 0.578, "NDVI_HIST_MIN": 0.4, "NDVI_HIST_MAX": 0.757, "NDVI_HIST_SD": 0.145 }, "geometry": { "type": "Point", "coordinates": [ -72.046111110065397, 5.146000000337803 ] } },
{ "type": "Feature", "properties": { "AMBIENTE": "Potrero", "LATITUD": 5.14708333, "LONGITUD": -72.04738889, "DAP_cm": 45.995670995670999, "ALTURA_m": 15.1, "COPA_D1_m": 12.0, "COPA_D2_m": 12.0, "PROM_COPA_m": 12.0, "AREA_COPA_m2": 113.0976, "ETIQUETA": "VC-IMB-23", "ACEITE_TOTAL_ml": 0.0, "RESINA_TOTAL_ml": 330.0, "Dist_Borde_m": 9.5003474523588061, "REF_CLIMA": "Bosquete", "RADIO_COPA_m": 6.0, "NDVI_HIST_MEDIA": 0.621, "NDVI_HIST_MEDIANA": 0.623, "NDVI_HIST_MIN": 0.402, "NDVI_HIST_MAX": 0.766, "NDVI_HIST_SD": 0.123 }, "geometry": { "type": "Point", "coordinates": [ -72.047388889616641, 5.147083329717695 ] } },
{ "type": "Feature", "properties": { "AMBIENTE": "Potrero", "LATITUD": 5.14705556, "LONGITUD": -72.04741667, "DAP_cm": 39.152024446142093, "ALTURA_m": 12.5, "COPA_D1_m": 18.4, "COPA_D2_m": 18.4, "PROM_COPA_m": 18.4, "AREA_COPA_m2": 265.905024, "ETIQUETA": "VC-IMB-24", "ACEITE_TOTAL_ml": 30.0, "RESINA_TOTAL_ml": 20.0, "Dist_Borde_m": 9.2752735812339058, "REF_CLIMA": "Bosquete", "RADIO_COPA_m": 9.2, "NDVI_HIST_MEDIA": 0.609, "NDVI_HIST_MEDIANA": 0.611, "NDVI_HIST_MIN": 0.393, "NDVI_HIST_MAX": 0.765, "NDVI_HIST_SD": 0.125 }, "geometry": { "type": "Point", "coordinates": [ -72.047416670083066, 5.147055560177275 ] } },
{ "type": "Feature", "properties": { "AMBIENTE": "Potrero", "LATITUD": 5.14708333, "LONGITUD": -72.04738889, "DAP_cm": 81.48714031066973, "ALTURA_m": 14.0, "COPA_D1_m": 19.8, "COPA_D2_m": 19.8, "PROM_COPA_m": 19.8, "AREA_COPA_m2": 307.908216, "ETIQUETA": "VC-IMB-25", "ACEITE_TOTAL_ml": 90.0, "RESINA_TOTAL_ml": 0.0, "Dist_Borde_m": 9.5003474523588061, "REF_CLIMA": "Bosquete", "RADIO_COPA_m": 9.9, "NDVI_HIST_MEDIA": 0.612, "NDVI_HIST_MEDIANA": 0.608, "NDVI_HIST_MIN": 0.396, "NDVI_HIST_MAX": 0.765, "NDVI_HIST_SD": 0.125 }, "geometry": { "type": "Point", "coordinates": [ -72.047388889616641, 5.147083329717695 ] } },
{ "type": "Feature", "properties": { "AMBIENTE": "Potrero", "LATITUD": 5.14741667, "LONGITUD": -72.04766667, "DAP_cm": 37.242169595110774, "ALTURA_m": 13.2, "COPA_D1_m": 15.2, "COPA_D2_m": 15.2, "PROM_COPA_m": 15.2, "AREA_COPA_m2": 181.458816, "ETIQUETA": "VC-IMB-26", "ACEITE_TOTAL_ml": 10.0, "RESINA_TOTAL_ml": 30.0, "Dist_Borde_m": 8.1580305564372999, "REF_CLIMA": "Bosquete", "RADIO_COPA_m": 7.6, "NDVI_HIST_MEDIA": 0.621, "NDVI_HIST_MEDIANA": 0.614, "NDVI_HIST_MIN": 0.426, "NDVI_HIST_MAX": 0.771, "NDVI_HIST_SD": 0.121 }, "geometry": { "type": "Point", "coordinates": [ -72.04766666979998, 5.147416670138432 ] } },
{ "type": "Feature", "properties": { "AMBIENTE": "Potrero", "LATITUD": 5.1475, "LONGITUD": -72.04763889, "DAP_cm": 48.701298701298704, "ALTURA_m": 12.0, "COPA_D1_m": 14.8, "COPA_D2_m": 14.8, "PROM_COPA_m": 14.8, "AREA_COPA_m2": 172.034016, "ETIQUETA": "VC-IMB-27", "ACEITE_TOTAL_ml": 0.0, "RESINA_TOTAL_ml": 160.0, "Dist_Borde_m": 2.0197728211500361, "REF_CLIMA": "Bosquete", "RADIO_COPA_m": 7.4, "NDVI_HIST_MEDIA": 0.598, "NDVI_HIST_MEDIANA": 0.571, "NDVI_HIST_MIN": 0.392, "NDVI_HIST_MAX": 0.763, "NDVI_HIST_SD": 0.125 }, "geometry": { "type": "Point", "coordinates": [ -72.047638889707727, 5.147500000337795 ] } },
{ "type": "Feature", "properties": { "AMBIENTE": "Potrero", "LATITUD": 5.14738889, "LONGITUD": -72.04769444, "DAP_cm": 43.608352431881848, "ALTURA_m": 13.0, "COPA_D1_m": 13.0, "COPA_D2_m": 13.0, "PROM_COPA_m": 13.0, "AREA_COPA_m2": 132.7326, "ETIQUETA": "VC-IMB-28", "ACEITE_TOTAL_ml": 60.0, "RESINA_TOTAL_ml": 15.0, "Dist_Borde_m": 6.4385360938511704, "REF_CLIMA": "Bosquete", "RADIO_COPA_m": 6.5, "NDVI_HIST_MEDIA": 0.625, "NDVI_HIST_MEDIANA": 0.62, "NDVI_HIST_MIN": 0.432, "NDVI_HIST_MAX": 0.771, "NDVI_HIST_SD": 0.119 }, "geometry": { "type": "Point", "coordinates": [ -72.047694440360758, 5.147388890617943 ] } },
{ "type": "Feature", "properties": { "AMBIENTE": "Potrero", "LATITUD": 5.14741667, "LONGITUD": -72.04758333, "DAP_cm": 34.377387318563791, "ALTURA_m": 9.0, "COPA_D1_m": 13.6, "COPA_D2_m": 13.6, "PROM_COPA_m": 13.6, "AREA_COPA_m2": 145.267584, "ETIQUETA": "VC-IMB-29", "ACEITE_TOTAL_ml": 0.0, "RESINA_TOTAL_ml": 65.0, "Dist_Borde_m": 5.0975717375924177, "REF_CLIMA": "Bosquete", "RADIO_COPA_m": 6.8, "NDVI_HIST_MEDIA": 0.635, "NDVI_HIST_MEDIANA": 0.634, "NDVI_HIST_MIN": 0.47, "NDVI_HIST_MAX": 0.776, "NDVI_HIST_SD": 0.117 }, "geometry": { "type": "Point", "coordinates": [ -72.047583329551912, 5.147416670390058 ] } },
{ "type": "Feature", "properties": { "AMBIENTE": "Potrero", "LATITUD": 5.14638889, "LONGITUD": -72.04908333, "DAP_cm": 41.061879297173412, "ALTURA_m": 14.3, "COPA_D1_m": 16.2, "COPA_D2_m": 16.2, "PROM_COPA_m": 16.2, "AREA_COPA_m2": 206.120376, "ETIQUETA": "VC-IMB-30", "ACEITE_TOTAL_ml": 0.0, "RESINA_TOTAL_ml": 20.0, "Dist_Borde_m": 3.6667489362829837, "REF_CLIMA": "Bosquete", "RADIO_COPA_m": 8.1, "NDVI_HIST_MEDIA": 0.521, "NDVI_HIST_MEDIANA": 0.5, "NDVI_HIST_MIN": 0.312, "NDVI_HIST_MAX": 0.712, "NDVI_HIST_SD": 0.136 }, "geometry": { "type": "Point", "coordinates": [ -72.049083329967516, 5.14638889019507 ] } }
]
}
