{
"type": "FeatureCollection",
"name": "poligonos_borde",
"crs": { "type": "name", "properties": { "name": "urn:ogc:def:crs:OGC:1.3:CRS84" } },
"features": [
{ "type": "Feature", "properties": { "AMBIENTE": "Bosque", "AREA_HA": 20.666756827064191 }, "geometry": { "type": "Polygon", "coordinates": [ [ [ -72.049525976644702, 5.138655501985839 ], [ -72.049541868095375, 5.138789316783951 ], [ -72.049534264328955, 5.13883326947247 ], [ -72.049520717027875, 5.13886342732343 ], [ -72.049489307799803, 5.138885442555588 ], [ -72.049441564796638, 5.138855132903225 ], [ -72.049418819922579, 5.138880182800017 ], [ -72.04936014198303, 5.138923300179691 ], [ -72.049343602153058, 5.138984355791608 ], [ -72.049346582240048, 5.139044473910041 ], [ -72.049330340477525, 5.139069120901499 ], [ -72.049307837245749, 5.139070632501187 ], [ -72.049264461284039, 5.139055852576996 ], [ -72.04923295515438, 5.139058975559855 ], [ -72.049179260714126, 5.139124442422896 ], [ -72.049162920132915, 5.139154745510599 ], [ -72.049072783024073, 5.13915702546355 ], [ -72.049075619373738, 5.139203503448343 ], [ -72.04915828882271, 5.139240861884389 ], [ -72.049207946877829, 5.139272549761757 ], [ -72.049234276745622, 5.139366555826339 ], [ -72.049309552270785, 5.13938629639572 ], [ -72.049321037276243, 5.13944472694512 ], [ -72.049388037634117, 5.139498599734494 ], [ -72.049417431508047, 5.139441004052113 ], [ -72.049454413698825, 5.139470979108706 ], [ -72.04935989115954, 5.139546155725773 ], [ -72.049335461099091, 5.13963035335062 ], [ -72.04935066303581, 5.139642230960888 ], [ -72.049373949146755, 5.139700036649773 ], [ -72.049419554965397, 5.139735669481726 ], [ -72.049472741616682, 5.139805420834953 ], [ -72.049485635132342, 5.139753445080935 ], [ -72.049479246982315, 5.13970867400364 ], [ -72.049543032423301, 5.13962660487858 ], [ -72.049618460555067, 5.139813848297888 ], [ -72.049712441405788, 5.139800367809341 ], [ -72.049770474812647, 5.139845710540769 ], [ -72.049807367970985, 5.139980960478805 ], [ -72.049862528184406, 5.140024058312143 ], [ -72.049918666251401, 5.14009768018335 ], [ -72.05007543127364, 5.140075193983331 ], [ -72.050105053011279, 5.140114041176901 ], [ -72.050157769626423, 5.14010647955446 ], [ -72.050184783451002, 5.140110609943557 ], [ -72.050297140701602, 5.140094493502896 ], [ -72.050371895946128, 5.140192530600698 ], [ -72.050598521651196, 5.140250895866742 ], [ -72.050711610067879, 5.140178806024915 ], [ -72.050993057678596, 5.140541562079881 ], [ -72.051007093651208, 5.140586735761165 ], [ -72.050962968464006, 5.140597871912867 ], [ -72.050969388040059, 5.140627217484677 ], [ -72.050942773400678, 5.140743729477747 ], [ -72.050994718709461, 5.140732306044629 ], [ -72.051017971251142, 5.140766408367577 ], [ -72.05104865855921, 5.140759659836554 ], [ -72.051102539854554, 5.140838682463849 ], [ -72.051186949081412, 5.140870795813731 ], [ -72.051122828686587, 5.140952961980982 ], [ -72.051157143598871, 5.141006333976009 ], [ -72.051145601710687, 5.141056861342182 ], [ -72.051180606117171, 5.141064899549235 ], [ -72.051217963332235, 5.141056684224564 ], [ -72.051200642438872, 5.141132510567691 ], [ -72.051290612121235, 5.14119540965938 ], [ -72.05130157932814, 5.141211494220293 ], [ -72.051266894553507, 5.141224885773799 ], [ -72.051301454548494, 5.1412385978012 ], [ -72.051322273886868, 5.141309106833982 ], [ -72.051394431164255, 5.141303629619265 ], [ -72.051390200233968, 5.141410775232362 ], [ -72.051504146459635, 5.141468913301867 ], [ -72.051764589674065, 5.14168695193534 ], [ -72.05174668908748, 5.141632660757259 ], [ -72.051694116871715, 5.141537152806287 ], [ -72.051691085984046, 5.14149701311489 ], [ -72.051705816866146, 5.141484406621376 ], [ -72.051768711229471, 5.14153354702513 ], [ -72.051894045312338, 5.141702111037926 ], [ -72.051779994719581, 5.141712063248399 ], [ -72.051866763400184, 5.141756193131107 ], [ -72.051928958148906, 5.141888006578509 ], [ -72.051882539088652, 5.141962766046534 ], [ -72.051847308856566, 5.141984306440751 ], [ -72.051856448870751, 5.142014213485565 ], [ -72.051818205987317, 5.142098760661892 ], [ -72.05190819840864, 5.142127322467813 ], [ -72.05194140875237, 5.142031069863364 ], [ -72.052023079030747, 5.142056990367012 ], [ -72.05200912379874, 5.142011327484818 ], [ -72.052108931976434, 5.142001251363017 ], [ -72.052108807211667, 5.14202835496309 ], [ -72.052135839607416, 5.142028480056234 ], [ -72.052135714843118, 5.14205558365691 ], [ -72.052162747240686, 5.142055708749608 ], [ -72.052162622476843, 5.142082812350903 ], [ -72.052189654876216, 5.142082937443121 ], [ -72.052204856937223, 5.142094815048335 ], [ -72.052297160679728, 5.142218955823336 ], [ -72.05232419308814, 5.142219080913151 ], [ -72.052323943565483, 5.142273288123373 ], [ -72.052285862681543, 5.142302478877413 ], [ -72.052392888066905, 5.142448619481502 ], [ -72.05238547718055, 5.142497344851489 ], [ -72.052403793182563, 5.142544699459472 ], [ -72.052376760758477, 5.142544574365132 ], [ -72.052376511224395, 5.142598781577381 ], [ -72.052304328467756, 5.14263465703055 ], [ -72.052285813547059, 5.142711146107879 ], [ -72.052349104489139, 5.142679967296789 ], [ -72.052337615303273, 5.14277726049295 ], [ -72.052213348643491, 5.142808622350756 ], [ -72.052235488042427, 5.14290982702767 ], [ -72.052169744560814, 5.142934145206553 ], [ -72.052128782913428, 5.143042379860043 ], [ -72.052157880957395, 5.143112749181521 ], [ -72.052135100609377, 5.143128363805713 ], [ -72.052157381794103, 5.14322116358254 ], [ -72.052130349347522, 5.143221038461341 ], [ -72.052130099759594, 5.143275245660377 ], [ -72.052071473977819, 5.143287606384459 ], [ -72.052011992221281, 5.143362998619447 ], [ -72.052068896442449, 5.14339461545422 ], [ -72.052048253616647, 5.143437491870516 ], [ -72.052128262976794, 5.14347464345895 ], [ -72.05209751224632, 5.143383494561552 ], [ -72.052156508232699, 5.143410888783364 ], [ -72.052176403071115, 5.143447681621614 ], [ -72.052240800780396, 5.143397568551275 ], [ -72.052207812790385, 5.143316261628685 ], [ -72.052299859714608, 5.143288212901512 ], [ -72.052339074969083, 5.14323672155735 ], [ -72.052318250677018, 5.143185395057373 ], [ -72.052389680506579, 5.143215301999089 ], [ -72.05241045040303, 5.143177723076488 ], [ -72.052427955856928, 5.143168207517927 ], [ -72.052427831077182, 5.1431953111248 ], [ -72.052454863529945, 5.143195436232759 ], [ -72.052454613970738, 5.143249643447735 ], [ -72.052334364877154, 5.143297558088488 ], [ -72.052280055213231, 5.143376554546953 ], [ -72.052334019354106, 5.143368813993666 ], [ -72.05234573543342, 5.14341176463221 ], [ -72.052313649334565, 5.143427853062749 ], [ -72.05234498504845, 5.143492945855768 ], [ -72.052273178177913, 5.143528950835943 ], [ -72.052264014088067, 5.143546907288315 ], [ -72.052226319440308, 5.143570857063663 ], [ -72.052267972759736, 5.143609715029958 ], [ -72.052290921756892, 5.143574136014944 ], [ -72.052330899341953, 5.143557517971797 ], [ -72.052399051622601, 5.143574636499896 ], [ -72.052344612306911, 5.143655697073096 ], [ -72.052309927359786, 5.143669088619087 ], [ -72.052344487511732, 5.143682800677563 ], [ -72.052290048174754, 5.143763861236599 ], [ -72.052263015701982, 5.143763736107863 ], [ -72.052263390101785, 5.143682425300752 ], [ -72.052217635330237, 5.143713787523112 ], [ -72.052232666276538, 5.143782497865614 ], [ -72.052134617714941, 5.14375998257939 ], [ -72.052146201238742, 5.143812933901277 ], [ -72.052062251535105, 5.14387047646232 ], [ -72.052087351606815, 5.14392093604164 ], [ -72.052196631560577, 5.143896904227918 ], [ -72.052279760725909, 5.144018821604638 ], [ -72.052305898057924, 5.143995984342251 ], [ -72.052293663091262, 5.143940055143943 ], [ -72.052306309091691, 5.143884694714825 ], [ -72.052256254958792, 5.143806842809575 ], [ -72.052406415103775, 5.143850988029278 ], [ -72.052426431084626, 5.143942486159387 ], [ -72.052331952276987, 5.144007245828729 ], [ -72.052356366929644, 5.144118078331825 ], [ -72.052460265450932, 5.144095229932716 ], [ -72.052547658577097, 5.144128478408345 ], [ -72.05256959309574, 5.144160647578356 ], [ -72.052628506474335, 5.144183061003384 ], [ -72.05273206050984, 5.144264298185079 ], [ -72.052758968229895, 5.144129456468347 ], [ -72.052791177779099, 5.144080360616266 ], [ -72.052813657155738, 5.143994188622437 ], [ -72.05284586668958, 5.143945092761121 ], [ -72.052868346044775, 5.143858920758086 ], [ -72.052910937497515, 5.143829726757118 ], [ -72.052939373641152, 5.143705241112745 ], [ -72.052885102649526, 5.143692778714036 ], [ -72.052826674290031, 5.143705627810784 ], [ -72.052858354127025, 5.143630970590981 ], [ -72.052898013281876, 5.14359703093036 ], [ -72.052831571191945, 5.143576638256752 ], [ -72.052843309929045, 5.143425137785236 ], [ -72.052859601818724, 5.143359934419249 ], [ -72.052891686526962, 5.143337942152481 ], [ -72.052925405445194, 5.143208684118025 ], [ -72.052968979283307, 5.143089398586062 ], [ -72.053006154251378, 5.143125542004557 ], [ -72.053597501338729, 5.143883046666149 ], [ -72.054397198860002, 5.144910809318063 ], [ -72.054460236210417, 5.145003446686412 ], [ -72.052569293453899, 5.146430776924231 ], [ -72.052483005742758, 5.146480731139632 ], [ -72.052468130063261, 5.146450130134231 ], [ -72.052416198422151, 5.146384220764765 ], [ -72.052392622877534, 5.146373253801761 ], [ -72.052366377910545, 5.1463352006488 ], [ -72.052333064993093, 5.146270472961585 ], [ -72.05230880016579, 5.146197164412885 ], [ -72.052277535608184, 5.14615049573565 ], [ -72.052193243402257, 5.14605502367749 ], [ -72.052157857379342, 5.146052744533784 ], [ -72.052132878392783, 5.14609989898246 ], [ -72.05208436370954, 5.146094760235991 ], [ -72.052062992456811, 5.146079492346988 ], [ -72.052041573190451, 5.146036302199301 ], [ -72.051989350271612, 5.146014125928171 ], [ -72.051942783771352, 5.145978207846602 ], [ -72.051963128040853, 5.145951492506463 ], [ -72.051985351017137, 5.145885824498027 ], [ -72.052023523452206, 5.145878504795837 ], [ -72.052083037301273, 5.145852865136885 ], [ -72.052041165140949, 5.145811557274466 ], [ -72.051999346146332, 5.145824300366679 ], [ -72.051976123876514, 5.145794820996851 ], [ -72.051970723135881, 5.145762437929339 ], [ -72.05195002855784, 5.145732700738321 ], [ -72.05194388736561, 5.14569409121702 ], [ -72.051957267061169, 5.145660390779454 ], [ -72.052017676966798, 5.14560883930696 ], [ -72.052021380292757, 5.145556196685093 ], [ -72.052044026028625, 5.14550593261503 ], [ -72.052078132961995, 5.145470612683612 ], [ -72.052168537851827, 5.145430600746439 ], [ -72.052224984083509, 5.145416076071967 ], [ -72.05227963808214, 5.145439178825927 ], [ -72.052288469752554, 5.145465034990581 ], [ -72.052320816120343, 5.145484282329921 ], [ -72.052357646589172, 5.14553248108894 ], [ -72.052429590523687, 5.145520930832552 ], [ -72.052437886545334, 5.14547791184739 ], [ -72.052478678612715, 5.145445119895537 ], [ -72.052547041257938, 5.145430044177856 ], [ -72.052633909631766, 5.145451106202656 ], [ -72.052758003305158, 5.145423924157902 ], [ -72.052806949407255, 5.145309067895877 ], [ -72.052866621305782, 5.145204962428259 ], [ -72.052893299140564, 5.145133770685901 ], [ -72.052900168401791, 5.145088272114268 ], [ -72.052844420345721, 5.145097602933922 ], [ -72.052783023895387, 5.145076547078414 ], [ -72.052629440725681, 5.144966023243907 ], [ -72.052506616173574, 5.14494835218827 ], [ -72.05244987731399, 5.144959080396003 ], [ -72.052412005586405, 5.144954198833604 ], [ -72.052368928805464, 5.144930644488101 ], [ -72.05245020170068, 5.144863285820927 ], [ -72.052472141170682, 5.144806758420253 ], [ -72.052540769290815, 5.144793424385668 ], [ -72.052507854631102, 5.144776886551902 ], [ -72.052523944932915, 5.144710951641436 ], [ -72.052562237008004, 5.144674874248238 ], [ -72.052598309065402, 5.14467551488497 ], [ -72.052622354813053, 5.144603552468861 ], [ -72.052558425805259, 5.144610379299436 ], [ -72.052527214047828, 5.144633973177247 ], [ -72.052493088442148, 5.14464522133814 ], [ -72.052466936090852, 5.144634817233169 ], [ -72.052455790010413, 5.144622212215279 ], [ -72.052458448809972, 5.144567312956396 ], [ -72.052409646554082, 5.144427459378815 ], [ -72.052383782958827, 5.144382035552615 ], [ -72.052342369293996, 5.144344309440981 ], [ -72.052345114938063, 5.144329065648963 ], [ -72.05236023671371, 5.144313319618508 ], [ -72.05234241664688, 5.144254730855232 ], [ -72.052315147867134, 5.14426244805974 ], [ -72.052315108336572, 5.144300187937866 ], [ -72.052273359332588, 5.144314019917124 ], [ -72.052253074351583, 5.144302779414262 ], [ -72.052241160364773, 5.144278081816953 ], [ -72.052157706590521, 5.144248222200794 ], [ -72.052134286561355, 5.144231131052566 ], [ -72.052124775343501, 5.14420570644801 ], [ -72.052112811936411, 5.144196494212915 ], [ -72.05209780266128, 5.144203245147823 ], [ -72.052077266098124, 5.144232179312461 ], [ -72.052045615062752, 5.144229010242317 ], [ -72.052005148388218, 5.144210769227979 ], [ -72.051845925743791, 5.144246262510594 ], [ -72.05170229677293, 5.14423402185413 ], [ -72.051417524555916, 5.144186385963 ], [ -72.051308889458355, 5.144141037475449 ], [ -72.05127381845341, 5.144249168607401 ], [ -72.051301328438015, 5.144262394611046 ], [ -72.051308666858347, 5.14429418397962 ], [ -72.051276377574041, 5.144309483566603 ], [ -72.051274363572844, 5.14432180146513 ], [ -72.051289228881146, 5.144324843579241 ], [ -72.051293057477366, 5.144338861949403 ], [ -72.051282430653615, 5.144346370464474 ], [ -72.051221234082476, 5.144349478296443 ], [ -72.051197319538872, 5.144344592803974 ], [ -72.051106691489863, 5.144250749909212 ], [ -72.051082572054355, 5.144173861387691 ], [ -72.051044841090871, 5.144150829400362 ], [ -72.051008158956193, 5.144102998119708 ], [ -72.050975722581327, 5.14409958816177 ], [ -72.050952746162096, 5.144067131330852 ], [ -72.050917913476596, 5.144077289859687 ], [ -72.050893375952469, 5.144064863410224 ], [ -72.050858330666685, 5.144037160883408 ], [ -72.050854842265736, 5.144009611935487 ], [ -72.050734329314139, 5.143957010408537 ], [ -72.050732838466629, 5.143975697817741 ], [ -72.050763066355557, 5.144044394990637 ], [ -72.050716471960286, 5.144082101948094 ], [ -72.050689207671581, 5.144091444406213 ], [ -72.050650638656265, 5.144082492275916 ], [ -72.050618291850682, 5.144057300199819 ], [ -72.050614510162433, 5.143964229099795 ], [ -72.050664474277752, 5.143928672826982 ], [ -72.050608001233371, 5.143858607573711 ], [ -72.050571582913193, 5.143748458837504 ], [ -72.050549315556026, 5.143715133579266 ], [ -72.050484901256667, 5.14341982685566 ], [ -72.050464918398433, 5.143397299930352 ], [ -72.050447181099528, 5.143274348452344 ], [ -72.050448628485356, 5.143215721304912 ], [ -72.050483698314082, 5.143092787209465 ], [ -72.050576369246272, 5.142957115945681 ], [ -72.050593790022475, 5.142912338721248 ], [ -72.050591581369403, 5.142868141850496 ], [ -72.050612830348342, 5.142783800712971 ], [ -72.050627130904218, 5.142654261677405 ], [ -72.050680328383265, 5.142605897328631 ], [ -72.050705162762924, 5.142540796527722 ], [ -72.050750550067661, 5.142519348417075 ], [ -72.050816631699718, 5.14241589862169 ], [ -72.050857904367334, 5.142321430697891 ], [ -72.050875162638533, 5.142241939413033 ], [ -72.050857112578583, 5.142145569131656 ], [ -72.050854848498361, 5.142069629066093 ], [ -72.050819294806928, 5.142034505179861 ], [ -72.050667496694359, 5.142076149489589 ], [ -72.050601112532988, 5.142078656370409 ], [ -72.05044536866275, 5.142008111015137 ], [ -72.050378801151112, 5.141929915070462 ], [ -72.050282415154456, 5.141886256279235 ], [ -72.050283526914342, 5.141810728215307 ], [ -72.050043322284708, 5.141651734335579 ], [ -72.05001460359378, 5.141653914203657 ], [ -72.049947906700226, 5.141575566174803 ], [ -72.049907846395314, 5.141593454996589 ], [ -72.049886892258954, 5.141639782569232 ], [ -72.049838585594856, 5.141661648352224 ], [ -72.049796148925282, 5.141607509675223 ], [ -72.049808175729325, 5.141558856953303 ], [ -72.049879206299551, 5.141514376469502 ], [ -72.049817668828808, 5.141423808292706 ], [ -72.049665057652973, 5.141435392080988 ], [ -72.049615220138747, 5.141431144660435 ], [ -72.049530776885234, 5.141461793357701 ], [ -72.049377558036113, 5.141489083314942 ], [ -72.049191767654534, 5.141481963765103 ], [ -72.049085353823017, 5.141523460551302 ], [ -72.049002807169643, 5.141577436677052 ], [ -72.048940473268786, 5.141572144067663 ], [ -72.048817556125982, 5.141620056310451 ], [ -72.048798929141597, 5.14164311762767 ], [ -72.048768223338428, 5.141648400634964 ], [ -72.048669152755451, 5.141727783451676 ], [ -72.048649029953864, 5.141751975223771 ], [ -72.048627009669232, 5.141764063414463 ], [ -72.048599115412657, 5.141768165523792 ], [ -72.048549580620616, 5.141754437730726 ], [ -72.048524804376257, 5.141873942653598 ], [ -72.04845453961677, 5.141887412208267 ], [ -72.04838828635387, 5.141860970282873 ], [ -72.048356163346611, 5.141724402752321 ], [ -72.048304368991509, 5.141679557491369 ], [ -72.04828227332365, 5.141603710708065 ], [ -72.048277237813068, 5.141499102238011 ], [ -72.048233485966904, 5.141399560120592 ], [ -72.048164226132272, 5.141300655634823 ], [ -72.048123811156188, 5.141265416920898 ], [ -72.048126215459817, 5.141237057662281 ], [ -72.048097694687684, 5.141075078833719 ], [ -72.048100082675205, 5.141046911975224 ], [ -72.048031209853065, 5.140880800015111 ], [ -72.047909827152139, 5.140803786681416 ], [ -72.047884939638223, 5.140774551433699 ], [ -72.047673373514129, 5.140748482991224 ], [ -72.047425257443891, 5.140801541456124 ], [ -72.047233905686141, 5.140825742933467 ], [ -72.047169604185513, 5.140855233669344 ], [ -72.047181182368831, 5.14088489037808 ], [ -72.047148404323977, 5.140919156084748 ], [ -72.047100605967714, 5.140923989213049 ], [ -72.047058493425567, 5.140906483891009 ], [ -72.047040434563414, 5.140853026664197 ], [ -72.047073722867282, 5.140825000603189 ], [ -72.046925839005823, 5.140687138312657 ], [ -72.046867608383337, 5.140682371064538 ], [ -72.046828581921147, 5.140693714969105 ], [ -72.046816311033879, 5.140708940354115 ], [ -72.046815991629444, 5.140729936326418 ], [ -72.046830320026331, 5.140750283115982 ], [ -72.046816216357101, 5.140764442124668 ], [ -72.046793978230525, 5.140758803353277 ], [ -72.046752089049093, 5.140727403028485 ], [ -72.046763722865549, 5.140666667157653 ], [ -72.046728221805481, 5.14063813397401 ], [ -72.04670167546135, 5.140659643399897 ], [ -72.04666720572601, 5.140662008062899 ], [ -72.04663569086199, 5.140620177893188 ], [ -72.046615869622826, 5.140624124201797 ], [ -72.046576902592321, 5.140617236185832 ], [ -72.046515882422128, 5.140543451424358 ], [ -72.046346519883656, 5.14042453931376 ], [ -72.046289989130543, 5.14036276942691 ], [ -72.046196027084832, 5.140288772428152 ], [ -72.046074760853955, 5.140117681251119 ], [ -72.046005614765974, 5.140006653261604 ], [ -72.045914328872271, 5.139929221436701 ], [ -72.04588868031864, 5.139870866560764 ], [ -72.045837099351488, 5.139825891660991 ], [ -72.0457543944175, 5.139680515899857 ], [ -72.04571235968227, 5.139629082572735 ], [ -72.045653255001753, 5.139608006009272 ], [ -72.045592309666986, 5.139566988712725 ], [ -72.045603812286842, 5.139503901626492 ], [ -72.045644138705953, 5.139443100145176 ], [ -72.045633302103127, 5.139342162220569 ], [ -72.045676134416794, 5.139297875666432 ], [ -72.046349752952906, 5.138790291335935 ], [ -72.046384979585596, 5.138793689069728 ], [ -72.046373269781171, 5.138871600124236 ], [ -72.046316058393998, 5.139100594394693 ], [ -72.046358286813643, 5.139193750637054 ], [ -72.046474783696766, 5.139316691672207 ], [ -72.046588175119098, 5.139418794535435 ], [ -72.046705089713257, 5.139437546828352 ], [ -72.046722961088406, 5.139500731253185 ], [ -72.04679596155087, 5.139630203064065 ], [ -72.046800199682551, 5.139764590308173 ], [ -72.046819497094546, 5.139902000554412 ], [ -72.046808507248926, 5.140016614123275 ], [ -72.046792435779338, 5.140052239453369 ], [ -72.046820422233012, 5.140097316763675 ], [ -72.046859620599875, 5.140111024831326 ], [ -72.046886106317075, 5.14008776473753 ], [ -72.046909119890586, 5.140044614278584 ], [ -72.046930065444542, 5.140034137651929 ], [ -72.046966522881476, 5.140048198725511 ], [ -72.04701920047205, 5.140032441708264 ], [ -72.047065337548389, 5.140063407302277 ], [ -72.047093721408302, 5.140067624192236 ], [ -72.047104296390629, 5.140099701883437 ], [ -72.047131151328017, 5.140095473041144 ], [ -72.047156438087356, 5.140066318797502 ], [ -72.047280064214277, 5.14007685522444 ], [ -72.047347672847437, 5.140010959905786 ], [ -72.047422420726477, 5.140017330506696 ], [ -72.047456037334513, 5.139988562102777 ], [ -72.047508572270843, 5.139905323214006 ], [ -72.047554109271971, 5.139909204220331 ], [ -72.047671116116604, 5.139809072057298 ], [ -72.047646271219989, 5.139770595004177 ], [ -72.047592422054493, 5.139723642660462 ], [ -72.047649670646422, 5.139584296749015 ], [ -72.047728607426492, 5.139501951560286 ], [ -72.047781853774353, 5.139363203294828 ], [ -72.047944112432432, 5.13922989313253 ], [ -72.048081524282551, 5.139178337257363 ], [ -72.048133966016508, 5.139149318594971 ], [ -72.04834832094555, 5.139156693911475 ], [ -72.048377126739126, 5.139123482180347 ], [ -72.048487631243304, 5.139044697489718 ], [ -72.0485357233337, 5.138989249512086 ], [ -72.048635619727733, 5.138976614573786 ], [ -72.048654110947055, 5.13889175827623 ], [ -72.048621783152271, 5.138800094085589 ], [ -72.048712094193036, 5.138684357973057 ], [ -72.048870602791013, 5.138338193134321 ], [ -72.048866785712292, 5.138268570996466 ], [ -72.048991656128209, 5.137975411166453 ], [ -72.049489896471812, 5.138607252629892 ], [ -72.049501689879008, 5.138655376864033 ], [ -72.049525976644702, 5.138655501985839 ] ], [ [ -72.052265666678636, 5.142228080537156 ], [ -72.052287255297372, 5.142252171899721 ], [ -72.052297160679728, 5.142218955823336 ], [ -72.052265666678636, 5.142228080537156 ] ], [ [ -72.052297781326516, 5.143667857369356 ], [ -72.052274634167105, 5.143620146202148 ], [ -72.052263390101785, 5.143682425300752 ], [ -72.052297781326516, 5.143667857369356 ] ] ] } },
{ "type": "Feature", "properties": { "AMBIENTE": "Potrero", "AREA_HA": 0.010005347462139654 }, "geometry": { "type": "Polygon", "coordinates": [ [ [ -72.049130721466199, 5.146383982426183 ], [ -72.049113852495054, 5.146422773780134 ], [ -72.049092791419071, 5.146426036740319 ], [ -72.049066582080115, 5.146422307642937 ], [ -72.049046486303467, 5.1463967283651 ], [ -72.049026010257407, 5.146389444971451 ], [ -72.049014309659682, 5.146401098401279 ], [ -72.049003340349273, 5.146398913383175 ], [ -72.049016503521727, 5.14636686645064 ], [ -72.049032591843627, 5.146347929626095 ], [ -72.049037025273265, 5.146320252727666 ], [ -72.049061020639741, 5.146310010454064 ], [ -72.049082730733247, 5.146336185152862 ], [ -72.04910101291722, 5.146340737274267 ], [ -72.049097585007729, 5.146358945759626 ], [ -72.049119295101207, 5.146365773941531 ], [ -72.049130721466199, 5.146383982426183 ] ] ] } },
{ "type": "Feature", "properties": { "AMBIENTE": "Potrero", "AREA_HA": 0.080809026106811607 }, "geometry": { "type": "Polygon", "coordinates": [ [ [ -72.047637295561586, 5.147531115907922 ], [ -72.047669289383578, 5.147555014500113 ], [ -72.047646436653579, 5.14757436097887 ], [ -72.047647579290071, 5.147595983513245 ], [ -72.047624726560073, 5.14760167365373 ], [ -72.047579021100105, 5.147570946894446 ], [ -72.047554660089929, 5.14751982666784 ], [ -72.047570017124485, 5.147469571338713 ], [ -72.047548312744169, 5.147446688433638 ], [ -72.047507249244987, 5.147430684909428 ], [ -72.047471613269209, 5.147362687708856 ], [ -72.047460829637274, 5.147307991210605 ], [ -72.047493335916101, 5.147266419546074 ], [ -72.047554359288725, 5.147292466955248 ], [ -72.047615382661348, 5.147275102015914 ], [ -72.047654611972291, 5.147253395841056 ], [ -72.047706917720248, 5.14730549065941 ], [ -72.047751844870717, 5.147320438398553 ], [ -72.047807191326186, 5.147320438398519 ], [ -72.047826830390989, 5.147339998264767 ], [ -72.047805405956623, 5.147354223621619 ], [ -72.047833971869096, 5.147380896164938 ], [ -72.047812547434759, 5.147407568707116 ], [ -72.047762557087907, 5.147409346876566 ], [ -72.047741132653528, 5.147423572231911 ], [ -72.047730420436352, 5.147462691957411 ], [ -72.047705425262933, 5.147500033511363 ], [ -72.047682215459034, 5.147508924357219 ], [ -72.047665318493301, 5.147503278826591 ], [ -72.047637295561586, 5.147531115907922 ] ] ] } },
{ "type": "Feature", "properties": { "AMBIENTE": "Potrero", "AREA_HA": 0.060379207683396545 }, "geometry": { "type": "Polygon", "coordinates": [ [ [ -72.047493453557806, 5.14696670349534 ], [ -72.047507807173091, 5.147104057338129 ], [ -72.047465962574734, 5.147140176421138 ], [ -72.047429697256149, 5.147192965846431 ], [ -72.047348797699271, 5.147184630674295 ], [ -72.047307287857834, 5.147147955915711 ], [ -72.047268009728171, 5.147080385445724 ], [ -72.047316214705518, 5.147037709355748 ], [ -72.047326480580281, 5.146979029727333 ], [ -72.047366720433104, 5.146899383559507 ], [ -72.04741919874165, 5.146880471245761 ], [ -72.047465912312504, 5.14690542671408 ], [ -72.047493453557806, 5.14696670349534 ] ] ] } },
{ "type": "Feature", "properties": { "AMBIENTE": "Potrero", "AREA_HA": 0.022816827282797485 }, "geometry": { "type": "Polygon", "coordinates": [ [ [ -72.046181893254015, 5.145967801969369 ], [ -72.046157621465994, 5.146045489456585 ], [ -72.046114686460143, 5.146053247445064 ], [ -72.046096138761115, 5.146053200128766 ], [ -72.046056035360891, 5.146016110672745 ], [ -72.046042787860955, 5.145977822117977 ], [ -72.046071222866303, 5.145890988800549 ], [ -72.046118566507459, 5.145870450503282 ], [ -72.046158835752763, 5.145899323989622 ], [ -72.046180108116701, 5.145943293412384 ], [ -72.046181893254015, 5.145967801969369 ] ] ] } },
{ "type": "Feature", "properties": { "AMBIENTE": "Potrero", "AREA_HA": 0.028731431001214315 }, "geometry": { "type": "Polygon", "coordinates": [ [ [ -72.044682437574536, 5.143809752739308 ], [ -72.04463101893208, 5.143835927540955 ], [ -72.044575029743584, 5.143817718983413 ], [ -72.044533894829627, 5.143733504397924 ], [ -72.044550788888799, 5.143661621479104 ], [ -72.044614950606302, 5.143642172636037 ], [ -72.044681901963685, 5.143692183945581 ], [ -72.04470700872271, 5.143742195251197 ], [ -72.044682437574536, 5.143809752739308 ] ] ] } },
{ "type": "Feature", "properties": { "AMBIENTE": "Potrero", "AREA_HA": 0.028612548138242634 }, "geometry": { "type": "Polygon", "coordinates": [ [ [ -72.044750638690687, 5.143426234869983 ], [ -72.044730999625827, 5.143493805727971 ], [ -72.044648872627462, 5.143500918449445 ], [ -72.044609594497771, 5.143460020299869 ], [ -72.044616735975893, 5.143412009425251 ], [ -72.044584599324352, 5.143412009425295 ], [ -72.044573887107177, 5.14336933308927 ], [ -72.044616735975907, 5.143326656750383 ], [ -72.044679223909469, 5.143315987665212 ], [ -72.044727428886773, 5.143346216739391 ], [ -72.044748853321153, 5.143401340341545 ], [ -72.044750638690687, 5.143426234869983 ] ] ] } },
{ "type": "Feature", "properties": { "AMBIENTE": "Potrero", "AREA_HA": 0.039304537629839972 }, "geometry": { "type": "Polygon", "coordinates": [ [ [ -72.044364784627746, 5.142857216833927 ], [ -72.044300796983819, 5.142845836468025 ], [ -72.04427108843484, 5.142872011309326 ], [ -72.044209386063869, 5.142859492907085 ], [ -72.044180820151382, 5.142796900892315 ], [ -72.044165965876886, 5.142734308871353 ], [ -72.044204873542355, 5.142680843366783 ], [ -72.044250735222178, 5.142666951314689 ], [ -72.044315008525274, 5.14267228586273 ], [ -72.044345359807295, 5.142727409523234 ], [ -72.044348930546349, 5.142777198631861 ], [ -72.044377496458836, 5.142794980455383 ], [ -72.044395350154147, 5.142825209554325 ], [ -72.044381067197904, 5.142850104105263 ], [ -72.044364784627746, 5.142857216833927 ] ] ] } },
{ "type": "Feature", "properties": { "AMBIENTE": "Potrero", "AREA_HA": 0.060972923781443249 }, "geometry": { "type": "Polygon", "coordinates": [ [ [ -72.043742033055082, 5.142575697889864 ], [ -72.043715062903829, 5.142495113116966 ], [ -72.043680737256736, 5.142468251523741 ], [ -72.043636604281929, 5.142456041708286 ], [ -72.043634152449982, 5.142421854223673 ], [ -72.043643959777711, 5.142363247102947 ], [ -72.043675833592843, 5.142294872121963 ], [ -72.043745892888836, 5.142326070773287 ], [ -72.043736663350742, 5.142359897893361 ], [ -72.043749072943001, 5.142376084201321 ], [ -72.043765495232009, 5.142379857510695 ], [ -72.043809276347531, 5.142364833608251 ], [ -72.043842558164499, 5.142375456920202 ], [ -72.043874431979646, 5.142434064039797 ], [ -72.043896498467078, 5.142517090783334 ], [ -72.04389895029901, 5.142585465740443 ], [ -72.043847461828364, 5.142617211253747 ], [ -72.043783714198042, 5.142605001441129 ], [ -72.043742033055082, 5.142575697889864 ] ] ] } },
{ "type": "Feature", "properties": { "AMBIENTE": "Potrero", "AREA_HA": 0.018806224098393876 }, "geometry": { "type": "Polygon", "coordinates": [ [ [ -72.044832019460358, 5.140425985691616 ], [ -72.044835157805238, 5.140485374421215 ], [ -72.044819466080838, 5.140516631645091 ], [ -72.04475983752819, 5.140524445950861 ], [ -72.044715900699899, 5.140493188727318 ], [ -72.044692363113299, 5.140415045661825 ], [ -72.044728454079404, 5.140380662709985 ], [ -72.044797497666693, 5.140391602740328 ], [ -72.044792790149401, 5.140396291324691 ], [ -72.044815697556345, 5.140406663723494 ], [ -72.044832019460358, 5.140425985691616 ] ] ] } }
]
}
