{
"type": "FeatureCollection",
"name": "zona_estudio",
"crs": { "type": "name", "properties": { "name": "urn:ogc:def:crs:OGC:1.3:CRS84" } },
"features": [
{ "type": "Feature", "properties": { "Campo": null }, "geometry": { "type": "MultiPolygon", "coordinates": [ [ [ [ -71.982489018999956, 5.062703656000053 ], [ -71.983102373999941, 5.062942649000036 ], [ -71.983761104999985, 5.063191736000022 ], [ -71.984158428999933, 5.063374147000047 ], [ -71.984709541999962, 5.063352210000062 ], [ -71.985355397999967, 5.062903164000033 ], [ -71.986124116999974, 5.061832937000077 ], [ -71.988286669999979, 5.061047188000032 ], [ -71.989657422999983, 5.060517216000051 ], [ -71.990346676999934, 5.058991596000055 ], [ -71.99120183499997, 5.057794910000041 ], [ -71.99212597199994, 5.056879120000076 ], [ -71.993216457999949, 5.056389230000036 ], [ -71.994368572999974, 5.056684512000061 ], [ -71.995367171999987, 5.057242320000057 ], [ -71.995901297999978, 5.057734396000058 ], [ -71.996649504999937, 5.058516390000023 ], [ -71.997117773999946, 5.059406344000024 ], [ -71.997528872999965, 5.060480805000054 ], [ -71.997849145999965, 5.060731443000066 ], [ -71.998343747999968, 5.061039454000024 ], [ -72.00003868899995, 5.061613416000057 ], [ -72.005426151999984, 5.063954459000058 ], [ -72.006792450999967, 5.064559012000075 ], [ -72.008074231999956, 5.065706980000073 ], [ -72.00986052199994, 5.067211378000025 ], [ -72.01302752099997, 5.070338397000057 ], [ -72.014105847999986, 5.07140001700003 ], [ -72.016454244999977, 5.073163568000041 ], [ -72.017162278999933, 5.073616008000045 ], [ -72.024826420999943, 5.076828545000069 ], [ -72.028256494999937, 5.078286351000031 ], [ -72.030436103999989, 5.079100331000063 ], [ -72.031199582999989, 5.078999775000057 ], [ -72.032377873999963, 5.078683942000055 ], [ -72.033102261999943, 5.078496299000051 ], [ -72.033904690999975, 5.078453738000064 ], [ -72.03469935399994, 5.078818471000034 ], [ -72.035387920999938, 5.079241882000076 ], [ -72.035784934999981, 5.079356373000053 ], [ -72.036993864999943, 5.079389466000066 ], [ -72.039862979999953, 5.078765060000023 ], [ -72.044235989999947, 5.077154194000059 ], [ -72.045336898999949, 5.076838708000025 ], [ -72.045597939999936, 5.076827779000041 ], [ -72.049362973999962, 5.077546928000061 ], [ -72.054133481999941, 5.078222502000074 ], [ -72.056843126999979, 5.078655701000059 ], [ -72.058360092999976, 5.07839640100002 ], [ -72.05959855499998, 5.07854566900005 ], [ -72.063855348999937, 5.078971492000051 ], [ -72.064717100999985, 5.079209806000051 ], [ -72.066227777999984, 5.07966804900002 ], [ -72.067205840999975, 5.079963984000074 ], [ -72.06805819799996, 5.08026051500002 ], [ -72.068367766999984, 5.080288130000042 ], [ -72.070909701999938, 5.080023922000066 ], [ -72.074090088999981, 5.080844459000048 ], [ -72.075820433999979, 5.080133425000042 ], [ -72.080099989999951, 5.08026094500002 ], [ -72.083833449999986, 5.081907559000058 ], [ -72.086301322999986, 5.081155985000066 ], [ -72.088175479999961, 5.079667490000077 ], [ -72.09273313999995, 5.076242768000043 ], [ -72.098363248999988, 5.073404696000068 ], [ -72.100390362999974, 5.073062076000042 ], [ -72.101534518999983, 5.073204529000066 ], [ -72.102865753999936, 5.07390089300003 ], [ -72.106449123999937, 5.075030262000041 ], [ -72.10718948799996, 5.075581507000038 ], [ -72.108187164999947, 5.075946574000056 ], [ -72.112398299999938, 5.077220821000026 ], [ -72.113805267999965, 5.078323642000043 ], [ -72.114587677999964, 5.079947292000043 ], [ -72.117843905999962, 5.082076792000066 ], [ -72.118771202999937, 5.083144924000067 ], [ -72.120289561999982, 5.084395124000025 ], [ -72.121730052999965, 5.084794999000053 ], [ -72.126677505999965, 5.085769637000055 ], [ -72.129236533999972, 5.088642153000023 ], [ -72.133269388999963, 5.091174590000037 ], [ -72.133311471999946, 5.092246990000035 ], [ -72.132657390999952, 5.094284427000048 ], [ -72.132462978999968, 5.09983333100007 ], [ -72.132575442999951, 5.100204958000063 ], [ -72.137371710999957, 5.102782134000051 ], [ -72.130590491999953, 5.106860639000047 ], [ -72.128639316999966, 5.108603903000073 ], [ -72.127893985999947, 5.109416621000037 ], [ -72.126855989999967, 5.109306102000062 ], [ -72.123694091999937, 5.11023896100005 ], [ -72.118576210999947, 5.113424383000051 ], [ -72.116772020999974, 5.112801065000042 ], [ -72.110651209999958, 5.113462922000053 ], [ -72.107227288999979, 5.113118338000049 ], [ -72.104525997999986, 5.11322173800005 ], [ -72.103540150999947, 5.114219828000046 ], [ -72.083465355999977, 5.134815555000046 ], [ -72.068244657999969, 5.153672208000046 ], [ -72.067715969999938, 5.156112971000027 ], [ -72.066870095999946, 5.160293444000047 ], [ -72.067800923999982, 5.162064398000041 ], [ -72.064205972999957, 5.166335467000067 ], [ -72.059321714999953, 5.174094162000074 ], [ -72.058131988999946, 5.177106366000032 ], [ -72.057427854999958, 5.17798566700003 ], [ -72.056962339999984, 5.179384618000029 ], [ -72.057173206999948, 5.180456985000035 ], [ -72.056955850999941, 5.18151494600005 ], [ -72.056794469999943, 5.182145994000052 ], [ -72.056842624999945, 5.182406853000032 ], [ -72.056946334999964, 5.182715441000028 ], [ -72.056860337999979, 5.182722992000038 ], [ -72.054334678999965, 5.182900913000026 ], [ -72.052586837999968, 5.182790992000037 ], [ -72.052642821999939, 5.184613543000069 ], [ -72.052461557999948, 5.185376763000022 ], [ -72.049864142999979, 5.184695762000047 ], [ -72.047201872999949, 5.18251237100003 ], [ -72.045345557999951, 5.180093893000048 ], [ -72.043549671999983, 5.178253071000029 ], [ -72.041527081999959, 5.177222470000061 ], [ -72.039028704999964, 5.176297348000048 ], [ -72.037217323999982, 5.175714552000045 ], [ -72.036228986999959, 5.175331429000039 ], [ -72.035618391999947, 5.175062853000043 ], [ -72.035026814999981, 5.174726308000061 ], [ -72.034637506999957, 5.174214253000059 ], [ -72.034373650999953, 5.173643417000051 ], [ -72.033644642999946, 5.172880876000022 ], [ -72.032878290999975, 5.17239971500004 ], [ -72.032219202999954, 5.172102275000043 ], [ -72.031182236999939, 5.171661193000034 ], [ -72.030270677999965, 5.171151632000033 ], [ -72.029833248999978, 5.17068828400005 ], [ -72.029570921999948, 5.170437425000046 ], [ -72.028949829999988, 5.169994348000046 ], [ -72.027717963999976, 5.169243894000033 ], [ -72.02666170599997, 5.168812589000026 ], [ -72.025237566999976, 5.168305463000024 ], [ -72.024392009999985, 5.167436794000025 ], [ -72.024177121999969, 5.166991770000038 ], [ -72.024107489999949, 5.166584840000041 ], [ -72.024105741999961, 5.166216373000054 ], [ -72.024303595999982, 5.165110004000041 ], [ -72.024652788999958, 5.163285356000074 ], [ -72.024725882999974, 5.162383213000055 ], [ -72.024892886999965, 5.160889123000061 ], [ -72.025130991999958, 5.160112251000044 ], [ -72.025735133999945, 5.159023341000022 ], [ -72.025916589999952, 5.158537641000066 ], [ -72.025952056999984, 5.157858702000055 ], [ -72.025940501999969, 5.157461193000074 ], [ -72.025861247999956, 5.157064005000052 ], [ -72.02568509799994, 5.156628493000028 ], [ -72.025422044999971, 5.156222484000068 ], [ -72.025003379999987, 5.155632978000028 ], [ -72.02471191099994, 5.15535316100005 ], [ -72.024294210999983, 5.154967280000051 ], [ -72.023742032999962, 5.154775974000074 ], [ -72.023140948999981, 5.15446853800006 ], [ -72.022432562999938, 5.153967678000072 ], [ -72.022130827999945, 5.153561849000027 ], [ -72.022003221999967, 5.153164890000028 ], [ -72.021913521999977, 5.152602905000037 ], [ -72.021748010999943, 5.15237097000005 ], [ -72.021165995999979, 5.152005260000067 ], [ -72.02069008999996, 5.151580864000039 ], [ -72.020407791999958, 5.151194335000071 ], [ -72.019978502999948, 5.150401239000075 ], [ -72.019265041999972, 5.148824054000045 ], [ -72.019077856999957, 5.148097685000039 ], [ -72.018852078999942, 5.147390892000033 ], [ -72.018786090999981, 5.145703967000031 ], [ -72.018530799999951, 5.144890649000047 ], [ -72.017902932999959, 5.143002753000076 ], [ -72.017346196999938, 5.141841777000025 ], [ -72.016206915999987, 5.140198717000033 ], [ -72.016030644999944, 5.139734105000059 ], [ -72.015296142999944, 5.13778852300004 ], [ -72.01515969899998, 5.137566142000026 ], [ -72.014213354999981, 5.135815494000042 ], [ -72.013317057999984, 5.134423387000027 ], [ -72.01291817799995, 5.133921036000061 ], [ -72.012684751999984, 5.13364093000007 ], [ -72.01214979599996, 5.132993768000063 ], [ -72.012003137999955, 5.132655072000034 ], [ -72.011642943999959, 5.132152536000035 ], [ -72.010787800999935, 5.131283855000049 ], [ -72.007700152999973, 5.128680255000063 ], [ -72.007630593999977, 5.128283011000065 ], [ -72.007628368999974, 5.12780787500003 ], [ -72.008026011999959, 5.125982991000058 ], [ -72.008315549999963, 5.123790135000036 ], [ -72.008890583999971, 5.122672290000025 ], [ -72.009973813999977, 5.120621155000038 ], [ -72.010375403999944, 5.119639883000048 ], [ -72.010882193999976, 5.118405999000061 ], [ -72.011501219999957, 5.116357052000069 ], [ -72.011754616999951, 5.114707398000064 ], [ -72.011799160999942, 5.11389265400004 ], [ -72.011720116999982, 5.113534242000071 ], [ -72.011503053999945, 5.112614063000024 ], [ -72.011121408999941, 5.11165586900006 ], [ -72.01064564099994, 5.111250837000057 ], [ -72.010228532999975, 5.110981284000047 ], [ -72.009801799999934, 5.110721474000059 ], [ -72.009451933999969, 5.110354636000068 ], [ -72.009140025999955, 5.109832470000072 ], [ -72.008905665999976, 5.109348727000054 ], [ -72.008875839999973, 5.109174323000047 ], [ -72.008855275999963, 5.108912604000068 ], [ -72.009017096999969, 5.108359123000071 ], [ -72.009003216999986, 5.107457380000028 ], [ -72.008717564999984, 5.106343580000043 ], [ -72.008531877999985, 5.105927486000041 ], [ -72.007852581999941, 5.105426434000037 ], [ -72.006622693999986, 5.105063718000054 ], [ -72.004637998999954, 5.104597867000052 ], [ -72.003360298999951, 5.10435172900003 ], [ -72.002692617999969, 5.104267582000034 ], [ -72.001773498999967, 5.104184610000061 ], [ -72.000429681999947, 5.104278167000075 ], [ -71.998205648999942, 5.104337048000048 ], [ -71.99710287399995, 5.104274321000048 ], [ -71.99532116599994, 5.103788094000038 ], [ -71.994836729999975, 5.103596415000027 ], [ -71.993806594999967, 5.102515158000074 ], [ -71.992880232999937, 5.100870986000075 ], [ -71.992557189999957, 5.100028852000037 ], [ -71.99213187099997, 5.097984763000056 ], [ -71.991616783999973, 5.095349572000032 ], [ -71.990980879999938, 5.093771916000037 ], [ -71.990190967999979, 5.092350126000042 ], [ -71.988740639999946, 5.090320487000042 ], [ -71.988449894999974, 5.090186079000034 ], [ -71.987975096999946, 5.089984646000062 ], [ -71.987171676999935, 5.089823526000032 ], [ -71.986136834999968, 5.089808935000065 ], [ -71.985584492999976, 5.089569071000028 ], [ -71.984991678999961, 5.08894151100003 ], [ -71.984554579999951, 5.088526564000063 ], [ -71.984215125999981, 5.08831480200007 ], [ -71.983546513999954, 5.088026988000024 ], [ -71.983119041999942, 5.087602297000046 ], [ -71.982963239999947, 5.087370289000035 ], [ -71.982790351999938, 5.085528641000053 ], [ -71.982077970999967, 5.084135557000025 ], [ -71.981920920999983, 5.083632034000061 ], [ -71.982059953999965, 5.082322281000074 ], [ -71.982231300999956, 5.081729964000033 ], [ -71.982490082999959, 5.081224518000056 ], [ -71.98281553299995, 5.080495729000063 ], [ -71.982869807999975, 5.079680921000033 ], [ -71.982779605999951, 5.078992844000027 ], [ -71.98224701099997, 5.076735882000037 ], [ -71.981973207999943, 5.076077744000031 ], [ -71.981418963999943, 5.075420902000076 ], [ -71.981253274999972, 5.075140451000038 ], [ -71.98115474399998, 5.074743324000053 ], [ -71.981133665999948, 5.074365234000027 ], [ -71.98120604099995, 5.073278823000066 ], [ -71.981281310999975, 5.072822710000025 ], [ -71.981240402999958, 5.072338043000059 ], [ -71.980744007999988, 5.071642143000076 ], [ -71.980094134999945, 5.071218468000041 ], [ -71.979464849999943, 5.071066218000055 ], [ -71.978449415999933, 5.071061204000046 ], [ -71.978062244999933, 5.070985413000074 ], [ -71.977703418999965, 5.070764033000046 ], [ -71.976302618999966, 5.068966817000046 ], [ -71.974072883999952, 5.067764937000049 ], [ -71.97372315299998, 5.067417448000072 ], [ -71.97256071299995, 5.06698642200007 ], [ -71.97226918299998, 5.066677452000022 ], [ -71.971897585999955, 5.065777321000041 ], [ -71.971526521999976, 5.064993554000068 ], [ -71.971613377999972, 5.064954366000052 ], [ -71.97186462999997, 5.064914422000072 ], [ -71.972115925999958, 5.064884175000032 ], [ -71.973314825999978, 5.064830178000022 ], [ -71.974001063999935, 5.064749445000075 ], [ -71.976348685999938, 5.064244088000066 ], [ -71.976881906999949, 5.064199742000028 ], [ -71.977513012999964, 5.06415959900005 ], [ -71.97808256999997, 5.064194214000054 ], [ -71.978968445999953, 5.064376319000075 ], [ -71.979569510999966, 5.064365016000067 ], [ -71.98033283999996, 5.064225739000051 ], [ -71.981191580999962, 5.063804805000075 ], [ -71.982489018999956, 5.062703656000053 ] ] ] ] } }
]
}
